[Satellite]
VERSION=1.1
NAME=STARLINK-1345
NICKNAME=STARLINK-1345
TLE1=1 45585U 20025BG  20141.75001157  .00081769  00000-0  89038-3 0  9992
TLE2=2 45585  53.0011 261.3493 0001030  91.4421  94.6046 15.62738115  5106
STATUS=0
